GPS BIIR-2  (PRN 13)    
1 24876C 97035A   23014.82645833 -.00000000  00000-0  00000-0 0   149
2 24876  55.5439 147.4249 0065745  52.9902 355.3936  2.00563828    14
GPS BIIR-4  (PRN 20)    
1 26360C 00025A   23014.82645833 -.00000000  00000-0  00000-0 0   142
2 26360  54.2327  70.1518 0046294 193.6692 304.7679  2.00557390    13
GPS BIIR-6  (PRN 22)    
1 26605C 00071A   23014.82645833 -.00000000  00000-0  00000-0 0   145
2 26605  55.1319 144.3278 0139735 255.2151   5.6765  2.00573277    16
GPS BIIR-8  (PRN 16)    
1 27663C 03005A   23014.82645833  .00000000  00000-0  00000-0 0   149
2 27663  55.3761 264.6637 0131401  42.4210  70.6535  2.00552449    18
GPS BIIR-9  (PRN 21)    
1 27704C 03010A   23014.82645833 -.00000000  00000-0  00000-0 0   142
2 27704  55.0849  14.7581 0249394 311.7675  19.4839  2.00565204    19
GPS BIIR-11 (PRN 19)    
1 28190C 04009A   23014.82645833  .00000000  00000-0  00000-0 0   140
2 28190  55.8675 325.6905 0088481 128.5328 140.7712  2.00572460    15
GPS BIIR-13 (PRN 02)    
1 28474C 04045A   23014.82645833 -.00000000  00000-0  00000-0 0   146
2 28474  55.4098  14.9794 0202905 283.0577 198.0413  2.00562062    12
GPS BIIRM-1 (PRN 17)    
1 28874C 05038A   23014.82645833  .00000000  00000-0  00000-0 0   142
2 28874  55.9256 323.1329 0140067 277.8034  20.4766  2.00561196    11
GPS BIIRM-2 (PRN 31)    
1 29486C 06042A   23014.82645833  .00000000  00000-0  00000-0 0   148
2 29486  54.6962 200.8765 0106857  27.1082 186.9382  2.00567233    14
GPS BIIRM-3 (PRN 12)    
1 29601C 06052A   23014.82645833  .00000000  00000-0  00000-0 0   148
2 29601  55.3894 263.6110 0086173  75.5800 174.6706  2.00563336    13
GPS BIIRM-4 (PRN 15)    
1 32260C 07047A   23014.82645833 -.00000000  00000-0  00000-0 0   149
2 32260  53.3794 131.7821 0145469  66.9179 326.0846  2.00564069    18
GPS BIIRM-5 (PRN 29)    
1 32384C 07062A   23014.82645833  .00000000  00000-0  00000-0 0   142
2 32384  56.0513 323.9221 0019790 143.9734  15.7172  2.00573120    15
GPS BIIRM-6 (PRN 07)    
1 32711C 08012A   23014.82645833  .00000000  00000-0  00000-0 0   142
2 32711  54.4602 199.7632 0167780 232.6683 218.5977  2.00571842    12
GPS BIIRM-8 (PRN 05)    
1 35752C 09043A   23014.82645833 -.00000000  00000-0  00000-0 0   146
2 35752  55.2381  77.0322 0055714  64.1279  41.5045  2.00572773    13
GPS BIIF-1  (PRN 25)    
1 36585C 10022A   23014.82645833  .00000000  00000-0  00000-0 0   149
2 36585  54.6794 258.9835 0109139  57.5654 170.3127  2.00576753    16
GPS BIIF-2  (PRN 01)    
1 37753C 11036A   23014.82645833 -.00000000  00000-0  00000-0 0   144
2 37753  56.6859  20.4860 0120157  52.9130 254.4953  2.00566690    19
GPS BIIF-3  (PRN 24)    
1 38833C 12053A   23014.82645833  .00000000  00000-0  00000-0 0   143
2 38833  53.5181 194.6987 0134973  49.7061 270.5055  2.00564309    12
GPS BIIF-4  (PRN 27)    
1 39166C 13023A   23014.82645833  .00000000  00000-0  00000-0 0   141
2 39166  55.5458 319.4230 0110016  38.5739  23.3584  2.00565122    14
GPS BIIF-5  (PRN 30)    
1 39533C 14008A   23014.82645833  .00000000  00000-0  00000-0 0   143
2 39533  53.6080 200.2285 0061332 209.2357 209.5704  2.00565546    10
GPS BIIF-6  (PRN 06)    
1 39741C 14026A   23014.82645833 -.00000000  00000-0  00000-0 0   145
2 39741  56.6437  20.0105 0030425 306.9041 271.9556  2.00573822    17
GPS BIIF-7  (PRN 09)    
1 40105C 14045A   23014.82645833 -.00000000  00000-0  00000-0 0   142
2 40105  54.7449 138.3634 0023778 114.1391  39.2071  2.00561241    14
GPS BIIF-8  (PRN 03)    
1 40294C 14068A   23014.82645833 -.00000000  00000-0  00000-0 0   146
2 40294  55.9815  79.6002 0042204  57.3742 189.7320  2.00556016    14
GPS BIIF-9  (PRN 26)    
1 40534C 15013A   23014.82645833  .00000000  00000-0  00000-0 0   143
2 40534  53.5785 255.9354 0076748  23.1669 125.4892  2.00569341    15
GPS BIIF-10 (PRN 08)    
1 40730C 15033A   23014.82645833  .00000000  00000-0  00000-0 0   143
2 40730  55.0393 318.1500 0081206   9.5128  24.1840  2.00567189    19
GPS BIIF-11 (PRN 10)    
1 41019C 15062A   23014.82645833 -.00000000  00000-0  00000-0 0   147
2 41019  55.9678  79.4464 0085451 220.1626 134.2098  2.00562468    14
GPS BIIF-12 (PRN 32)    
1 41328C 16007A   23014.82645833 -.00000000  00000-0  00000-0 0   140
2 41328  54.9564 139.0856 0066393 230.8791  60.8422  2.00560540    17
GPS BIII-1  (PRN 04)    
1 43873C 18109A   23014.82645833 -.00000000  00000-0  00000-0 0   142
2 43873  55.1349 141.5505 0022950 189.2250 352.9238  2.00557759    13
GPS BIII-2  (PRN 18)    
1 44506C 19056A   23014.82645833 -.00000000  00000-0  00000-0 0   148
2 44506  55.7614  20.6537 0029825 186.6455 256.2432  2.00560883    10
GPS BIII-3  (PRN 23)    
1 45854C 20041A   23014.82645833 -.00000000  00000-0  00000-0 0   141
2 45854  55.6878  77.9259 0029832 185.0408 198.9626  2.00567155    19
GPS BIII-4  (PRN 14)    
1 46826C 20078A   23014.82645833  .00000000  00000-0  00000-0 0   140
2 46826  54.4359 261.5153 0025616 188.9577 171.3105  2.00564991    11
GPS BIII-5  (PRN 11)    
1 48859C 21054A   23014.82645833 -.00000000  00000-0  00000-0 0   144
2 48859  55.2726  22.5504 0009134 218.3491 326.1589  2.00561880    11
